{"type": "FeatureCollection", "features": [ {"type": "Feature", "properties": {"norad_id": 28649, "name": "IRS-P5 (CARTOSAT-1)", "group": "resource", "lat": -66.52226079792565, "lon": 29.901897282420176, "alt_km": 604.2986188251725, "timestamp": "2025-12-11T15:53:39.198592+00:00", "meta": {"OBJECT_NAME": "IRS-P5 (CARTOSAT-1)", "OBJECT_ID": "2005-017A", "EPOCH": "2025-12-11T01:41:44.812320", "MEAN_MOTION": 14.9039469, "ECCENTRICITY": 0.00013144, "INCLINATION": 97.5497, "RA_OF_ASC_NODE": 11.5578, "ARG_OF_PERICENTER": 46.3716, "MEAN_ANOMALY": 313.7611, "EPHEMERIS_TYPE": 0, "CLASSIFICATION_TYPE": "U", "NORAD_CAT_ID": 28649, "ELEMENT_SET_NO": 999, "REV_AT_EPOCH": 11579, "BSTAR": 0.00024249705, "MEAN_MOTION_DOT": 2.309e-05, "MEAN_MOTION_DDOT": 0}, "tle": {"line1": "1 28649U 05017A   25345.07065755  .00002309  00000+0  24250-3 0  9995", "line2": "2 28649  97.5497  11.5578 0001314  46.3716 313.7611 14.90394690115795"}}, "geometry": {"type": "Point", "coordinates": [29.901897282420176, -66.52226079792565]}}, {"type": "Feature", "properties": {"norad_id": 28893, "name": "SINAH 1", "group": "resource", "lat": 27.523050800335284, "lon": 109.87519721690063, "alt_km": 683.3360322281851, "timestamp": "2025-12-11T15:53:39.198603+00:00", "meta": {"OBJECT_NAME": "SINAH 1", "OBJECT_ID": "2005-043D", "EPOCH": "2025-12-11T07:33:55.492704", "MEAN_MOTION": 14.63960476, "ECCENTRICITY": 0.00152675, "INCLINATION": 98.2601, "RA_OF_ASC_NODE": 113.8686, "ARG_OF_PERICENTER": 141.2138, "MEAN_ANOMALY": 219.0163, "EPHEMERIS_TYPE": 0, "CLASSIFICATION_TYPE": "U", "NORAD_CAT_ID": 28893, "ELEMENT_SET_NO": 999, "REV_AT_EPOCH": 7303, "BSTAR": 0.00017502342, "MEAN_MOTION_DOT": 8.69e-06, "MEAN_MOTION_DDOT": 0}, "tle": {"line1": "1 28893U 05043D   25345.31522561  .00000869  00000+0  17502-3 0  9996", "line2": "2 28893  98.2601 113.8686 0015267 141.2138 219.0163 14.63960476 73033"}}, "geometry": {"type": "Point", "coordinates": [109.87519721690063, 27.523050800335284]}}, {"type": "Feature", "properties": {"norad_id": 29079, "name": "EROS B", "group": "resource", "lat": -5.697430646338871, "lon": 102.92197981062293, "alt_km": 367.8777797765124, "timestamp": "2025-12-11T15:53:39.198613+00:00", "meta": {"OBJECT_NAME": "EROS B", "OBJECT_ID": "2006-014A", "EPOCH": "2025-12-11T06:43:40.796256", "MEAN_MOTION": 15.67711725, "ECCENTRICITY": 0.00019068, "INCLINATION": 97.3469, "RA_OF_ASC_NODE": 101.7846, "ARG_OF_PERICENTER": 294.8466, "MEAN_ANOMALY": 65.2597, "EPHEMERIS_TYPE": 0, "CLASSIFICATION_TYPE": "U", "NORAD_CAT_ID": 29079, "ELEMENT_SET_NO": 999, "REV_AT_EPOCH": 9057, "BSTAR": 0.0033686758, "MEAN_MOTION_DOT": 0.00384865, "MEAN_MOTION_DDOT": 0}, "tle": {"line1": "1 29079U 06014A   25345.28033329  .00384865  00000+0  33687-2 0  9999", "line2": "2 29079  97.3469 101.7846 0001906 294.8466  65.2597 15.67711725 90576"}}, "geometry": {"type": "Point", "coordinates": [102.92197981062293, -5.697430646338871]}}, {"type": "Feature", "properties": {"norad_id": 29228, "name": "RESURS-DK 1", "group": "resource", "lat": 52.07100992804363, "lon": -103.3498628280003, "alt_km": 527.9507041015759, "timestamp": "2025-12-11T15:53:39.198625+00:00", "meta": {"OBJECT_NAME": "RESURS-DK 1", "OBJECT_ID": "2006-021A", "EPOCH": "2025-12-10T18:42:49.206816", "MEAN_MOTION": 15.1214377, "ECCENTRICITY": 0.00074309, "INCLINATION": 69.9334, "RA_OF_ASC_NODE": 106.9034, "ARG_OF_PERICENTER": 261.2716, "MEAN_ANOMALY": 98.7608, "EPHEMERIS_TYPE": 0, "CLASSIFICATION_TYPE": "U", "NORAD_CAT_ID": 29228, "ELEMENT_SET_NO": 999, "REV_AT_EPOCH": 7408, "BSTAR": 0.00025580505, "MEAN_MOTION_DOT": 4.317e-05, "MEAN_MOTION_DDOT": 0}, "tle": {"line1": "1 29228U 06021A   25344.77973619  .00004317  00000+0  25581-3 0  9997", "line2": "2 29228  69.9334 106.9034 0007430 261.2716  98.7608 15.12143770 74089"}}, "geometry": {"type": "Point", "coordinates": [-103.3498628280003, 52.07100992804363]}}, {"type": "Feature", "properties": {"norad_id": 29268, "name": "ARIRANG-2 (KOMPSAT-2)", "group": "resource", "lat": -67.23551693435215, "lon": -166.67952234064686, "alt_km": 677.0377416343717, "timestamp": "2025-12-11T15:53:39.198641+00:00", "meta": {"OBJECT_NAME": "ARIRANG-2 (KOMPSAT-2)", "OBJECT_ID": "2006-031A", "EPOCH": "2025-12-11T07:09:21.888000", "MEAN_MOTION": 14.64491004, "ECCENTRICITY": 0.0013589, "INCLINATION": 97.8262, "RA_OF_ASC_NODE": 173.8412, "ARG_OF_PERICENTER": 314.1405, "MEAN_ANOMALY": 219.0225, "EPHEMERIS_TYPE": 0, "CLASSIFICATION_TYPE": "U", "NORAD_CAT_ID": 29268, "ELEMENT_SET_NO": 999, "REV_AT_EPOCH": 3397, "BSTAR": 0.00010621761, "MEAN_MOTION_DOT": 5.18e-06, "MEAN_MOTION_DDOT": 0}, "tle": {"line1": "1 29268U 06031A   25345.29817000  .00000518  00000+0  10622-3 0  9990", "line2": "2 29268  97.8262 173.8412 0013589 314.1405 219.0225 14.64491004 33979"}}, "geometry": {"type": "Point", "coordinates": [-166.67952234064686, -67.23551693435215]}}, {"type": "Feature", "properties": {"norad_id": 29709, "name": "LAPAN-TUBSAT", "group": "resource", "lat": 35.2714716130416, "lon": 161.59643913239458, "alt_km": 605.4244187780951, "timestamp": "2025-12-11T15:53:39.198651+00:00", "meta": {"OBJECT_NAME": "LAPAN-TUBSAT", "OBJECT_ID": "2007-001A", "EPOCH": "2025-12-11T05:33:00.061344", "MEAN_MOTION": 14.85666361, "ECCENTRICITY": 0.00136951, "INCLINATION": 98.1259, "RA_OF_ASC_NODE": 335.3565, "ARG_OF_PERICENTER": 78.43, "MEAN_ANOMALY": 281.8451, "EPHEMERIS_TYPE": 0, "CLASSIFICATION_TYPE": "U", "NORAD_CAT_ID": 29709, "ELEMENT_SET_NO": 999, "REV_AT_EPOCH": 2324, "BSTAR": 9.3824576e-05, "MEAN_MOTION_DOT": 7.57e-06, "MEAN_MOTION_DDOT": 0}, "tle": {"line1": "1 29709U 07001A   25345.23125071  .00000757  00000+0  93825-4 0  9994", "line2": "2 29709  98.1259 335.3565 0013695  78.4300 281.8451 14.85666361 23245"}}, "geometry": {"type": "Point", "coordinates": [161.59643913239458, 35.2714716130416]}}, {"type": "Feature", "properties": {"norad_id": 31113, "name": "HAIYANG-1B", "group": "resource", "lat": -60.104739755697786, "lon": 135.21816356418088, "alt_km": 805.2630059957874, "timestamp": "2025-12-11T15:53:39.198662+00:00", "meta": {"OBJECT_NAME": "HAIYANG-1B", "OBJECT_ID": "2007-010A", "EPOCH": "2025-12-11T04:42:07.449120", "MEAN_MOTION": 14.30964143, "ECCENTRICITY": 0.00143201, "INCLINATION": 98.3313, "RA_OF_ASC_NODE": 329.5378, "ARG_OF_PERICENTER": 42.2744, "MEAN_ANOMALY": 317.9541, "EPHEMERIS_TYPE": 0, "CLASSIFICATION_TYPE": "U", "NORAD_CAT_ID": 31113, "ELEMENT_SET_NO": 999, "REV_AT_EPOCH": 97374, "BSTAR": 9.2287634e-05, "MEAN_MOTION_DOT": 2.01e-06, "MEAN_MOTION_DDOT": 0}, "tle": {"line1": "1 31113U 07010A   25345.19591955  .00000201  00000+0  92288-4 0  9995", "line2": "2 31113  98.3313 329.5378 0014320  42.2744 317.9541 14.30964143973743"}}, "geometry": {"type": "Point", "coordinates": [135.21816356418088, -60.104739755697786]}}, {"type": "Feature", "properties": {"norad_id": 31598, "name": "COSMO-SKYMED 1", "group": "resource", "lat": 60.09055182678389, "lon": 157.11593062928324, "alt_km": 573.4651343323194, "timestamp": "2025-12-11T15:53:39.198673+00:00", "meta": {"OBJECT_NAME": "COSMO-SKYMED 1", "OBJECT_ID": "2007-023A", "EPOCH": "2025-12-11T05:59:20.870304", "MEAN_MOTION": 14.95760036, "ECCENTRICITY": 0.00011023, "INCLINATION": 97.8836, "RA_OF_ASC_NODE": 170.6391, "ARG_OF_PERICENTER": 86.39, "MEAN_ANOMALY": 273.7446, "EPHEMERIS_TYPE": 0, "CLASSIFICATION_TYPE": "U", "NORAD_CAT_ID": 31598, "ELEMENT_SET_NO": 999, "REV_AT_EPOCH": 168, "BSTAR": 0.0011367321, "MEAN_MOTION_DOT": 0.00012629, "MEAN_MOTION_DDOT": 0}, "tle": {"line1": "1 31598U 07023A   25345.24954711  .00012629  00000+0  11367-2 0  9999", "line2": "2 31598  97.8836 170.6391 0001102  86.3900 273.7446 14.95760036  1685"}}, "geometry": {"type": "Point", "coordinates": [157.11593062928324, 60.09055182678389]}}, {"type": "Feature", "properties": {"norad_id": 31698, "name": "TERRASAR-X", "group": "resource", "lat": -13.629862925082588, "lon": -7.123653758595822, "alt_km": 513.3891198183856, "timestamp": "2025-12-11T15:53:39.198683+00:00", "meta": {"OBJECT_NAME": "TERRASAR-X", "OBJECT_ID": "2007-026A", "EPOCH": "2025-12-10T13:04:49.433376", "MEAN_MOTION": 15.19151507, "ECCENTRICITY": 0.0001862, "INCLINATION": 97.446, "RA_OF_ASC_NODE": 349.9579, "ARG_OF_PERICENTER": 94.9214, "MEAN_ANOMALY": 265.2234, "EPHEMERIS_TYPE": 0, "CLASSIFICATION_TYPE": "U", "NORAD_CAT_ID": 31698, "ELEMENT_SET_NO": 999, "REV_AT_EPOCH": 2458, "BSTAR": 9.1186e-05, "MEAN_MOTION_DOT": 1.848e-05, "MEAN_MOTION_DDOT": 0}, "tle": {"line1": "1 31698U 07026A   25344.54501659  .00001848  00000+0  91186-4 0  9994", "line2": "2 31698  97.4460 349.9579 0001862  94.9214 265.2234 15.19151507 24589"}}, "geometry": {"type": "Point", "coordinates": [-7.123653758595822, -13.629862925082588]}}, {"type": "Feature", "properties": {"norad_id": 32060, "name": "WORLDVIEW-1 (WV-1)", "group": "resource", "lat": -33.49680080135671, "lon": 108.08141964532925, "alt_km": 498.4168278239231, "timestamp": "2025-12-11T15:53:39.198694+00:00", "meta": {"OBJECT_NAME": "WORLDVIEW-1 (WV-1)", "OBJECT_ID": "2007-041A", "EPOCH": "2025-12-11T06:35:29.226048", "MEAN_MOTION": 15.24653348, "ECCENTRICITY": 7.398e-05, "INCLINATION": 97.3835, "RA_OF_ASC_NODE": 102.7762, "ARG_OF_PERICENTER": 104.9834, "MEAN_ANOMALY": 255.1485, "EPHEMERIS_TYPE": 0, "CLASSIFICATION_TYPE": "U", "NORAD_CAT_ID": 32060, "ELEMENT_SET_NO": 999, "REV_AT_EPOCH": 1425, "BSTAR": 0.00064251971, "MEAN_MOTION_DOT": 0.00015816, "MEAN_MOTION_DDOT": 0}, "tle": {"line1": "1 32060U 07041A   25345.27464382  .00015816  00000+0  64252-3 0  9990", "line2": "2 32060  97.3835 102.7762 0000739 104.9834 255.1485 15.24653348 14254"}}, "geometry": {"type": "Point", "coordinates": [108.08141964532925, -33.49680080135671]}}]}